start=new Date('2021-11-24T00:00:00.000Z').valueOf();
sats=[{"FILE":"3222418","NORAD_CAT_ID":"48145","ECCENTRICITY":"0.00014500","PERIAPSIS":"546.186","SEMIMAJOR_AXIS":"6925.326","CLASSIFICATION_TYPE":"U","MEAN_MOTION":"15.06407502","OBJECT_NAME":"STARLINK-2488","RA_OF_ASC_NODE":"347.1456","LAUNCH_DATE":"2021-04-07","MEAN_MOTION_DDOT":"0.0000000000000","BSTAR":"0.00013203000000","APOAPSIS":"548.195","CENTER_NAME":"EARTH","REV_AT_EPOCH":"3648","EPHEMERIS_TYPE":"0","TLE_LINE1":"1 48145U 21027BF  21327.46705653  .00001686  00000-0  13203-3 0  9998","OBJECT_ID":"2021-027BF","ARG_OF_PERICENTER":"66.8268","REF_FRAME":"TEME","MEAN_ANOMALY":"293.2873","MEAN_ELEMENT_THEORY":"SGP4","TLE_LINE2":"2 48145  53.0564 347.1456 0001450  66.8268 293.2873 15.06407502 36488","MEAN_MOTION_DOT":"0.00001686","TIME_SYSTEM":"UTC","COUNTRY_CODE":"US","SITE":"AFETR","ELEMENT_SET_NO":"999","PERIOD":"95.592","EPOCH":"2021-11-23T11:12:33.684192","RCS_SIZE":"LARGE","DECAY_DATE":null,"INCLINATION":"53.0564","OBJECT_TYPE":"PAYLOAD","GP_ID":"190338520"},{"ARG_OF_PERICENTER":"57.5328","REF_FRAME":"TEME","MEAN_ANOMALY":"302.5814","BSTAR":"0.00000214640000","MEAN_MOTION_DDOT":"0.0000000000000","APOAPSIS":"548.318","CENTER_NAME":"EARTH","EPHEMERIS_TYPE":"0","REV_AT_EPOCH":"3581","TLE_LINE1":"1 48146U 21027BG  21327.53156582 -.00000250  00000-0  21464-5 0  9995","OBJECT_ID":"2021-027BG","CLASSIFICATION_TYPE":"U","MEAN_MOTION":"15.06397271","RA_OF_ASC_NODE":"6.8596","OBJECT_NAME":"STARLINK-2489","LAUNCH_DATE":"2021-04-07","FILE":"3222327","NORAD_CAT_ID":"48146","ECCENTRICITY":"0.00015830","PERIAPSIS":"546.126","SEMIMAJOR_AXIS":"6925.357","OBJECT_TYPE":"PAYLOAD","GP_ID":"190313479","INCLINATION":"53.0572","DECAY_DATE":null,"RCS_SIZE":"LARGE","ELEMENT_SET_NO":"999","PERIOD":"95.592","EPOCH":"2021-11-23T12:45:27.286848","MEAN_ELEMENT_THEORY":"SGP4","MEAN_MOTION_DOT":"-0.00000250","TLE_LINE2":"2 48146  53.0572   6.8596 0001583  57.5328 302.5814 15.06397271 35819","TIME_SYSTEM":"UTC","COUNTRY_CODE":"US","SITE":"AFETR"},{"DECAY_DATE":null,"INCLINATION":"53.0721","RCS_SIZE":"LARGE","OBJECT_TYPE":"PAYLOAD","GP_ID":"190364313","MEAN_MOTION_DOT":"-0.00001451","TLE_LINE2":"2 48147  53.0721  11.4962 0001410  68.8082 291.3058 15.06394781 36152","MEAN_ELEMENT_THEORY":"SGP4","COUNTRY_CODE":"US","SITE":"AFETR","TIME_SYSTEM":"UTC","PERIOD":"95.592","ELEMENT_SET_NO":"999","EPOCH":"2021-11-23T14:17:40.397280","CENTER_NAME":"EARTH","BSTAR":"-0.00007853600000","MEAN_MOTION_DDOT":"0.0000000000000","APOAPSIS":"548.206","TLE_LINE1":"1 48147U 21027BH  21327.59560645 -.00001451  00000-0 -78536-4 0  9997","OBJECT_ID":"2021-027BH","REV_AT_EPOCH":"3615","EPHEMERIS_TYPE":"0","ARG_OF_PERICENTER":"68.8082","MEAN_ANOMALY":"291.3058","REF_FRAME":"TEME","NORAD_CAT_ID":"48147","FILE":"3222563","ECCENTRICITY":"0.00014100","PERIAPSIS":"546.253","SEMIMAJOR_AXIS":"6925.365","RA_OF_ASC_NODE":"11.4962","OBJECT_NAME":"STARLINK-2490","CLASSIFICATION_TYPE":"U","MEAN_MOTION":"15.06394781","LAUNCH_DATE":"2021-04-07"},{"EPOCH":"2021-11-23T11:57:40.039776","PERIOD":"95.592","ELEMENT_SET_NO":"999","COUNTRY_CODE":"US","SITE":"AFETR","TIME_SYSTEM":"UTC","MEAN_MOTION_DOT":"0.00000015","TLE_LINE2":"2 48148  53.0566   7.0233 0001390  65.4857 294.6277 15.06398545 36197","MEAN_ELEMENT_THEORY":"SGP4","OBJECT_TYPE":"PAYLOAD","GP_ID":"190338272","INCLINATION":"53.0566","DECAY_DATE":null,"RCS_SIZE":"LARGE","LAUNCH_DATE":"2021-04-07","OBJECT_NAME":"STARLINK-2491","RA_OF_ASC_NODE":"7.0233","CLASSIFICATION_TYPE":"U","MEAN_MOTION":"15.06398545","PERIAPSIS":"546.255","SEMIMAJOR_AXIS":"6925.353","FILE":"3222418","NORAD_CAT_ID":"48148","ECCENTRICITY":"0.00013900","MEAN_ANOMALY":"294.6277","REF_FRAME":"TEME","ARG_OF_PERICENTER":"65.4857","TLE_LINE1":"1 48148U 21027BJ  21327.49838009  .00000015  00000-0  19889-4 0  9998","OBJECT_ID":"2021-027BJ","EPHEMERIS_TYPE":"0","REV_AT_EPOCH":"3619","CENTER_NAME":"EARTH","BSTAR":"0.00001988900000","MEAN_MOTION_DDOT":"0.0000000000000","APOAPSIS":"548.181"},{"CENTER_NAME":"EARTH","APOAPSIS":"548.072","BSTAR":"-0.00060457000000","MEAN_MOTION_DDOT":"0.0000000000000","OBJECT_ID":"2021-027BK","TLE_LINE1":"1 48149U 21027BK  21327.44492329 -.00009286  00000-0 -60457-3 0  9992","REV_AT_EPOCH":"3647","EPHEMERIS_TYPE":"0","ARG_OF_PERICENTER":"66.3095","MEAN_ANOMALY":"293.8043","REF_FRAME":"TEME","ECCENTRICITY":"0.00014300","FILE":"3222418","NORAD_CAT_ID":"48149","SEMIMAJOR_AXIS":"6925.216","PERIAPSIS":"546.091","RA_OF_ASC_NODE":"347.2546","OBJECT_NAME":"STARLINK-2492","MEAN_MOTION":"15.06443110","CLASSIFICATION_TYPE":"U","LAUNCH_DATE":"2021-04-07","DECAY_DATE":null,"RCS_SIZE":"LARGE","INCLINATION":"53.0521","GP_ID":"190338021","OBJECT_TYPE":"PAYLOAD","MEAN_MOTION_DOT":"-0.00009286","TLE_LINE2":"2 48149  53.0521 347.2546 0001430  66.3095 293.8043 15.06443110 36476","MEAN_ELEMENT_THEORY":"SGP4","SITE":"AFETR","COUNTRY_CODE":"US","TIME_SYSTEM":"UTC","PERIOD":"95.589","ELEMENT_SET_NO":"999","EPOCH":"2021-11-23T10:40:41.372256"},{"COUNTRY_CODE":"US","SITE":"AFETR","TIME_SYSTEM":"UTC","TLE_LINE2":"2 48150  53.0573 346.9352 0001986  55.8693 304.2484 15.06398414 36493","MEAN_MOTION_DOT":"0.00001041","MEAN_ELEMENT_THEORY":"SGP4","EPOCH":"2021-11-23T12:21:34.252128","PERIOD":"95.592","ELEMENT_SET_NO":"999","DECAY_DATE":null,"RCS_SIZE":"LARGE","INCLINATION":"53.0573","OBJECT_TYPE":"PAYLOAD","GP_ID":"190336771","PERIAPSIS":"545.843","SEMIMAJOR_AXIS":"6925.353","FILE":"3222418","NORAD_CAT_ID":"48150","ECCENTRICITY":"0.00019860","LAUNCH_DATE":"2021-04-07","RA_OF_ASC_NODE":"346.9352","OBJECT_NAME":"STARLINK-2493","CLASSIFICATION_TYPE":"U","MEAN_MOTION":"15.06398414","TLE_LINE1":"1 48150U 21027BL  21327.51497977  .00001041  00000-0  88802-4 0  9990","OBJECT_ID":"2021-027BL","EPHEMERIS_TYPE":"0","REV_AT_EPOCH":"3649","CENTER_NAME":"EARTH","BSTAR":"0.00008880200000","MEAN_MOTION_DDOT":"0.0000000000000","APOAPSIS":"548.594","MEAN_ANOMALY":"304.2484","REF_FRAME":"TEME","ARG_OF_PERICENTER":"55.8693"},{"ELEMENT_SET_NO":"999","PERIOD":"95.592","EPOCH":"2021-11-23T10:51:20.309760","MEAN_ELEMENT_THEORY":"SGP4","MEAN_MOTION_DOT":"-0.00000005","TLE_LINE2":"2 48151  53.0568 347.2194 0001442  65.2327 294.8812 15.06395879 36482","TIME_SYSTEM":"UTC","SITE":"AFETR","COUNTRY_CODE":"US","GP_ID":"190337521","OBJECT_TYPE":"PAYLOAD","INCLINATION":"53.0568","DECAY_DATE":null,"RCS_SIZE":"LARGE","MEAN_MOTION":"15.06395879","CLASSIFICATION_TYPE":"U","OBJECT_NAME":"STARLINK-2503","RA_OF_ASC_NODE":"347.2194","LAUNCH_DATE":"2021-04-07","ECCENTRICITY":"0.00014420","NORAD_CAT_ID":"48151","FILE":"3222418","SEMIMAJOR_AXIS":"6925.361","PERIAPSIS":"546.228","ARG_OF_PERICENTER":"65.2327","REF_FRAME":"TEME","MEAN_ANOMALY":"294.8812","APOAPSIS":"548.225","BSTAR":"0.00001858300000","MEAN_MOTION_DDOT":"0.0000000000000","CENTER_NAME":"EARTH","EPHEMERIS_TYPE":"0","REV_AT_EPOCH":"3648","OBJECT_ID":"2021-027BM","TLE_LINE1":"1 48151U 21027BM  21327.45231840 -.00000005  00000-0  18583-4 0  9998"},{"FILE":"3222465","NORAD_CAT_ID":"48276","ECCENTRICITY":"0.00023330","PERIAPSIS":"545.604","SEMIMAJOR_AXIS":"6925.355","RA_OF_ASC_NODE":"240.1228","OBJECT_NAME":"STARLINK-2567","CLASSIFICATION_TYPE":"U","MEAN_MOTION":"15.06397906","LAUNCH_DATE":"2021-04-29","CENTER_NAME":"EARTH","BSTAR":"-0.00197280000000","MEAN_MOTION_DDOT":"0.0000000000000","APOAPSIS":"548.836","TLE_LINE1":"1 48276U 21036A   21327.91667824 -.00029545  00000-0 -19728-2 0  9993","OBJECT_ID":"2021-036A","EPHEMERIS_TYPE":"0","REV_AT_EPOCH":"3323","ARG_OF_PERICENTER":"61.3015","MEAN_ANOMALY":"75.9800","REF_FRAME":"TEME","MEAN_MOTION_DOT":"-0.00029545","TLE_LINE2":"2 48276  53.0523 240.1228 0002333  61.3015  75.9800 15.06397906 33239","MEAN_ELEMENT_THEORY":"SGP4","COUNTRY_CODE":"US","SITE":"AFETR","TIME_SYSTEM":"UTC","PERIOD":"95.592","ELEMENT_SET_NO":"999","EPOCH":"2021-11-23T22:00:00.999936","DECAY_DATE":null,"INCLINATION":"53.0523","RCS_SIZE":"LARGE","OBJECT_TYPE":"PAYLOAD","GP_ID":"190339845"},{"ELEMENT_SET_NO":"999","PERIOD":"91.551","EPOCH":"2021-11-23T22:00:00.999936","MEAN_ELEMENT_THEORY":"SGP4","MEAN_MOTION_DOT":"-0.01037620","TLE_LINE2":"2 48277  53.0546 211.8457 0006996 337.9193 204.4476 15.72887815  3693","TIME_SYSTEM":"UTC","SITE":"AFETR","COUNTRY_CODE":"US","GP_ID":"190364578","OBJECT_TYPE":"PAYLOAD","DECAY_DATE":null,"RCS_SIZE":"LARGE","INCLINATION":"53.0546","MEAN_MOTION":"15.72887815","CLASSIFICATION_TYPE":"U","OBJECT_NAME":"STARLINK-2569","RA_OF_ASC_NODE":"211.8457","LAUNCH_DATE":"2021-04-29","ECCENTRICITY":"0.00069960","FILE":"3222563","NORAD_CAT_ID":"48277","SEMIMAJOR_AXIS":"6728.785","PERIAPSIS":"345.943","ARG_OF_PERICENTER":"337.9193","REF_FRAME":"TEME","MEAN_ANOMALY":"204.4476","APOAPSIS":"355.358","BSTAR":"-0.00828390000000","MEAN_MOTION_DDOT":"0.0000000000000","CENTER_NAME":"EARTH","REV_AT_EPOCH":"369","EPHEMERIS_TYPE":"0","OBJECT_ID":"2021-036B","TLE_LINE1":"1 48277U 21036B   21327.91667824 -.01037620  00000-0 -82839-2 0  9991"},{"COUNTRY_CODE":"US","SITE":"AFETR","TIME_SYSTEM":"UTC","MEAN_MOTION_DOT":"-0.00025454","TLE_LINE2":"2 48278  53.0518 220.1236 0001842  53.5477 298.8743 15.06395737 33514","MEAN_ELEMENT_THEORY":"SGP4","EPOCH":"2021-11-23T22:00:00.999936","PERIOD":"95.592","ELEMENT_SET_NO":"999","INCLINATION":"53.0518","DECAY_DATE":null,"RCS_SIZE":"LARGE","OBJECT_TYPE":"PAYLOAD","GP_ID":"190339851","PERIAPSIS":"545.951","SEMIMAJOR_AXIS":"6925.362","NORAD_CAT_ID":"48278","FILE":"3222465","ECCENTRICITY":"0.00018420","LAUNCH_DATE":"2021-04-29","RA_OF_ASC_NODE":"220.1236","OBJECT_NAME":"STARLINK-2543","CLASSIFICATION_TYPE":"U","MEAN_MOTION":"15.06395737","TLE_LINE1":"1 48278U 21036C   21327.91667824 -.00025454  00000-0 -16962-2 0  9997","OBJECT_ID":"2021-036C","EPHEMERIS_TYPE":"0","REV_AT_EPOCH":"3351","CENTER_NAME":"EARTH","MEAN_MOTION_DDOT":"0.0000000000000","BSTAR":"-0.00169620000000","APOAPSIS":"548.502","MEAN_ANOMALY":"298.8743","REF_FRAME":"TEME","ARG_OF_PERICENTER":"53.5477"}];
